start=new Date('2022-09-12T00:00:00.000Z').valueOf();
sats=[{"TIME_SYSTEM":"UTC","TLE_LINE1":"1 46781U 20074AU  22254.59525299 -.00000003  00000-0  18714-4 0  9999","TLE_LINE2":"2 46781  53.0535 285.7544 0001451  79.7710 280.3442 15.06397512104496","PERIAPSIS":"546.216","SEMIMAJOR_AXIS":"6925.356","EPOCH":"2022-09-11T14:17:09.858336","MEAN_MOTION_DDOT":"0.0000000000000","EPHEMERIS_TYPE":"0","OBJECT_TYPE":"PAYLOAD","REV_AT_EPOCH":"10449","SITE":"AFETR","LAUNCH_DATE":"2020-10-24","COUNTRY_CODE":"US","APOAPSIS":"548.226","OBJECT_ID":"2020-074AU","RA_OF_ASC_NODE":"285.7544","DECAY_DATE":null,"ELEMENT_SET_NO":"999","OBJECT_NAME":"STARLINK-1834","MEAN_MOTION":"15.06397512","INCLINATION":"53.0535","MEAN_MOTION_DOT":"-0.00000003","MEAN_ANOMALY":"280.3442","MEAN_ELEMENT_THEORY":"SGP4","FILE":"3569361","NORAD_CAT_ID":"46781","BSTAR":"0.00001871400000","CLASSIFICATION_TYPE":"U","ARG_OF_PERICENTER":"79.7710","GP_ID":"212355236","ECCENTRICITY":"0.00014510","REF_FRAME":"TEME","RCS_SIZE":"LARGE","PERIOD":"95.592","CENTER_NAME":"EARTH"},{"MEAN_ANOMALY":"306.8058","MEAN_MOTION":"15.06397027","INCLINATION":"53.0551","MEAN_MOTION_DOT":"0.00000519","OBJECT_NAME":"STARLINK-1835","ELEMENT_SET_NO":"999","DECAY_DATE":null,"PERIOD":"95.592","RCS_SIZE":"LARGE","CENTER_NAME":"EARTH","ECCENTRICITY":"0.00016660","GP_ID":"212320535","REF_FRAME":"TEME","ARG_OF_PERICENTER":"53.3084","BSTAR":"0.00005375500000","CLASSIFICATION_TYPE":"U","MEAN_ELEMENT_THEORY":"SGP4","FILE":"3568903","NORAD_CAT_ID":"46782","OBJECT_TYPE":"PAYLOAD","REV_AT_EPOCH":"10461","EPHEMERIS_TYPE":"0","TLE_LINE2":"2 46782  53.0551 276.1736 0001666  53.3084 306.8058 15.06397027104614","TLE_LINE1":"1 46782U 20074AV  22254.50034312  .00000519  00000-0  53755-4 0  9997","SEMIMAJOR_AXIS":"6925.358","PERIAPSIS":"546.069","EPOCH":"2022-09-11T12:00:29.645568","MEAN_MOTION_DDOT":"0.0000000000000","TIME_SYSTEM":"UTC","RA_OF_ASC_NODE":"276.1736","OBJECT_ID":"2020-074AV","COUNTRY_CODE":"US","APOAPSIS":"548.376","SITE":"AFETR","LAUNCH_DATE":"2020-10-24"},{"APOAPSIS":"548.268","COUNTRY_CODE":"US","LAUNCH_DATE":"2020-10-24","SITE":"AFETR","RA_OF_ASC_NODE":"276.1102","OBJECT_ID":"2020-074AW","EPOCH":"2022-09-11T12:21:43.289568","PERIAPSIS":"546.128","SEMIMAJOR_AXIS":"6925.333","MEAN_MOTION_DDOT":"0.0000000000000","TLE_LINE2":"2 46783  53.0516 276.1102 0001545  63.4173 296.6974 15.06404961104619","TLE_LINE1":"1 46783U 20074AW  22254.51508437  .00001388  00000-0  11206-3 0  9992","TIME_SYSTEM":"UTC","REV_AT_EPOCH":"10461","OBJECT_TYPE":"PAYLOAD","EPHEMERIS_TYPE":"0","CLASSIFICATION_TYPE":"U","BSTAR":"0.00011206000000","ARG_OF_PERICENTER":"63.4173","FILE":"3569361","NORAD_CAT_ID":"46783","MEAN_ELEMENT_THEORY":"SGP4","RCS_SIZE":"LARGE","PERIOD":"95.592","CENTER_NAME":"EARTH","REF_FRAME":"TEME","GP_ID":"212356236","ECCENTRICITY":"0.00015450","OBJECT_NAME":"STARLINK-1851","DECAY_DATE":null,"ELEMENT_SET_NO":"999","MEAN_ANOMALY":"296.6974","MEAN_MOTION_DOT":"0.00001388","MEAN_MOTION":"15.06404961","INCLINATION":"53.0516"},{"BSTAR":"0.00008600700000","CLASSIFICATION_TYPE":"U","ARG_OF_PERICENTER":"75.2566","NORAD_CAT_ID":"46784","FILE":"3568903","MEAN_ELEMENT_THEORY":"SGP4","PERIOD":"95.592","RCS_SIZE":"LARGE","CENTER_NAME":"EARTH","GP_ID":"212319533","ECCENTRICITY":"0.00014100","REF_FRAME":"TEME","OBJECT_NAME":"STARLINK-1882","DECAY_DATE":null,"ELEMENT_SET_NO":"999","MEAN_ANOMALY":"284.8579","MEAN_MOTION_DOT":"0.00001000","INCLINATION":"53.0530","MEAN_MOTION":"15.06403186","APOAPSIS":"548.180","COUNTRY_CODE":"US","LAUNCH_DATE":"2020-10-24","SITE":"AFETR","RA_OF_ASC_NODE":"276.6637","OBJECT_ID":"2020-074AX","PERIAPSIS":"546.227","MEAN_MOTION_DDOT":"0.0000000000000","SEMIMAJOR_AXIS":"6925.339","EPOCH":"2022-09-11T09:14:35.238048","TLE_LINE2":"2 46784  53.0530 276.6637 0001410  75.2566 284.8579 15.06403186104597","TLE_LINE1":"1 46784U 20074AX  22254.38513007  .00001000  00000-0  86007-4 0  9990","TIME_SYSTEM":"UTC","REV_AT_EPOCH":"10459","OBJECT_TYPE":"PAYLOAD","EPHEMERIS_TYPE":"0"},{"REV_AT_EPOCH":"10428","OBJECT_TYPE":"PAYLOAD","EPHEMERIS_TYPE":"0","PERIAPSIS":"546.095","MEAN_MOTION_DDOT":"0.0000000000000","SEMIMAJOR_AXIS":"6925.327","EPOCH":"2022-09-11T10:30:15.348960","TLE_LINE2":"2 46785  53.0541 276.4461 0001585  58.4663 301.6481 15.06406927104289","TLE_LINE1":"1 46785U 20074AY  22254.43767765 -.00000480  00000-0 -13311-4 0  9990","TIME_SYSTEM":"UTC","RA_OF_ASC_NODE":"276.4461","OBJECT_ID":"2020-074AY","APOAPSIS":"548.290","COUNTRY_CODE":"US","LAUNCH_DATE":"2020-10-24","SITE":"AFETR","MEAN_ANOMALY":"301.6481","MEAN_MOTION_DOT":"-0.00000480","INCLINATION":"53.0541","MEAN_MOTION":"15.06406927","OBJECT_NAME":"STARLINK-1883","DECAY_DATE":null,"ELEMENT_SET_NO":"999","PERIOD":"95.592","RCS_SIZE":"LARGE","CENTER_NAME":"EARTH","GP_ID":"212332241","ECCENTRICITY":"0.00015850","REF_FRAME":"TEME","BSTAR":"-0.00001331100000","ARG_OF_PERICENTER":"58.4663","CLASSIFICATION_TYPE":"U","NORAD_CAT_ID":"46785","FILE":"3569227","MEAN_ELEMENT_THEORY":"SGP4"},{"PERIAPSIS":"546.323","MEAN_MOTION_DDOT":"0.0000000000000","SEMIMAJOR_AXIS":"6925.327","EPOCH":"2022-09-11T10:01:03.493920","TLE_LINE2":"2 46786  53.0533 256.5503 0001254  82.6899 277.4232 15.06407074104569","TLE_LINE1":"1 46786U 20074AZ  22254.41740155 -.00000653  00000-0 -24960-4 0  9997","TIME_SYSTEM":"UTC","REV_AT_EPOCH":"10456","OBJECT_TYPE":"PAYLOAD","EPHEMERIS_TYPE":"0","APOAPSIS":"548.060","COUNTRY_CODE":"US","LAUNCH_DATE":"2020-10-24","SITE":"AFETR","RA_OF_ASC_NODE":"256.5503","OBJECT_ID":"2020-074AZ","OBJECT_NAME":"STARLINK-1893","ELEMENT_SET_NO":"999","DECAY_DATE":null,"MEAN_ANOMALY":"277.4232","MEAN_MOTION_DOT":"-0.00000653","INCLINATION":"53.0533","MEAN_MOTION":"15.06407074","CLASSIFICATION_TYPE":"U","BSTAR":"-0.00002496000000","ARG_OF_PERICENTER":"82.6899","NORAD_CAT_ID":"46786","FILE":"3569227","MEAN_ELEMENT_THEORY":"SGP4","RCS_SIZE":"LARGE","PERIOD":"95.592","CENTER_NAME":"EARTH","GP_ID":"212332254","REF_FRAME":"TEME","ECCENTRICITY":"0.00012540"},{"OBJECT_NAME":"STARLINK-1899","ELEMENT_SET_NO":"999","DECAY_DATE":null,"MEAN_ANOMALY":"273.3829","MEAN_MOTION_DOT":"0.00001753","INCLINATION":"53.0537","MEAN_MOTION":"15.06405724","ARG_OF_PERICENTER":"86.7301","BSTAR":"0.00013655000000","CLASSIFICATION_TYPE":"U","NORAD_CAT_ID":"46787","FILE":"3569361","MEAN_ELEMENT_THEORY":"SGP4","CENTER_NAME":"EARTH","RCS_SIZE":"LARGE","PERIOD":"95.592","GP_ID":"212356736","ECCENTRICITY":"0.00012340","REF_FRAME":"TEME","EPOCH":"2022-09-11T19:23:40.958016","PERIAPSIS":"546.341","SEMIMAJOR_AXIS":"6925.331","MEAN_MOTION_DDOT":"0.0000000000000","TLE_LINE2":"2 46787  53.0537 254.7821 0001234  86.7301 273.3829 15.06405724104947","TLE_LINE1":"1 46787U 20074BA  22254.80811294  .00001753  00000-0  13655-3 0  9992","TIME_SYSTEM":"UTC","REV_AT_EPOCH":"10494","OBJECT_TYPE":"PAYLOAD","EPHEMERIS_TYPE":"0","APOAPSIS":"548.051","COUNTRY_CODE":"US","LAUNCH_DATE":"2020-10-24","SITE":"AFETR","RA_OF_ASC_NODE":"254.7821","OBJECT_ID":"2020-074BA"},{"MEAN_MOTION_DOT":"-0.00000487","INCLINATION":"53.0533","MEAN_MOTION":"15.06399967","MEAN_ANOMALY":"300.5438","DECAY_DATE":null,"ELEMENT_SET_NO":"999","OBJECT_NAME":"STARLINK-1929","ECCENTRICITY":"0.00015110","GP_ID":"212320034","REF_FRAME":"TEME","RCS_SIZE":"LARGE","PERIOD":"95.592","CENTER_NAME":"EARTH","NORAD_CAT_ID":"46788","FILE":"3568903","MEAN_ELEMENT_THEORY":"SGP4","BSTAR":"-0.00001382200000","CLASSIFICATION_TYPE":"U","ARG_OF_PERICENTER":"59.5701","EPHEMERIS_TYPE":"0","REV_AT_EPOCH":"10487","OBJECT_TYPE":"PAYLOAD","TIME_SYSTEM":"UTC","SEMIMAJOR_AXIS":"6925.349","PERIAPSIS":"546.167","MEAN_MOTION_DDOT":"0.0000000000000","EPOCH":"2022-09-11T08:04:17.798304","TLE_LINE1":"1 46788U 20074BB  22254.33631711 -.00000487  00000-0 -13822-4 0  9997","TLE_LINE2":"2 46788  53.0533 256.9043 0001511  59.5701 300.5438 15.06399967104876","OBJECT_ID":"2020-074BB","RA_OF_ASC_NODE":"256.9043","LAUNCH_DATE":"2020-10-24","SITE":"AFETR","APOAPSIS":"548.260","COUNTRY_CODE":"US"},{"CLASSIFICATION_TYPE":"U","BSTAR":"-0.00002945300000","ARG_OF_PERICENTER":"57.9833","MEAN_ELEMENT_THEORY":"SGP4","FILE":"3568903","NORAD_CAT_ID":"46789","PERIOD":"95.592","RCS_SIZE":"LARGE","CENTER_NAME":"EARTH","GP_ID":"212320786","ECCENTRICITY":"0.00016630","REF_FRAME":"TEME","OBJECT_NAME":"STARLINK-1930","ELEMENT_SET_NO":"999","DECAY_DATE":null,"MEAN_ANOMALY":"302.1317","MEAN_MOTION":"15.06406512","INCLINATION":"53.0537","MEAN_MOTION_DOT":"-0.00000720","COUNTRY_CODE":"US","APOAPSIS":"548.345","SITE":"AFETR","LAUNCH_DATE":"2020-10-24","RA_OF_ASC_NODE":"286.9687","OBJECT_ID":"2020-074BC","TLE_LINE2":"2 46789  53.0537 286.9687 0001663  57.9833 302.1317 15.06406512104457","TLE_LINE1":"1 46789U 20074BC  22254.35938112 -.00000720  00000-0 -29453-4 0  9992","PERIAPSIS":"546.042","SEMIMAJOR_AXIS":"6925.329","MEAN_MOTION_DDOT":"0.0000000000000","EPOCH":"2022-09-11T08:37:30.528768","TIME_SYSTEM":"UTC","OBJECT_TYPE":"PAYLOAD","REV_AT_EPOCH":"10445","EPHEMERIS_TYPE":"0"},{"BSTAR":"0.00005261000000","ARG_OF_PERICENTER":"93.8905","CLASSIFICATION_TYPE":"U","MEAN_ELEMENT_THEORY":"SGP4","NORAD_CAT_ID":"46790","FILE":"3569146","RCS_SIZE":"LARGE","PERIOD":"95.592","CENTER_NAME":"EARTH","ECCENTRICITY":"0.00012220","GP_ID":"212330174","REF_FRAME":"TEME","OBJECT_NAME":"STARLINK-1931","ELEMENT_SET_NO":"999","DECAY_DATE":null,"MEAN_ANOMALY":"266.2224","INCLINATION":"53.0516","MEAN_MOTION":"15.06396516","MEAN_MOTION_DOT":"0.00000502","COUNTRY_CODE":"US","APOAPSIS":"548.071","SITE":"AFETR","LAUNCH_DATE":"2020-10-24","RA_OF_ASC_NODE":"286.9769","OBJECT_ID":"2020-074BD","TLE_LINE2":"2 46790  53.0516 286.9769 0001222  93.8905 266.2224 15.06396516104120","TLE_LINE1":"1 46790U 20074BD  22254.32249131  .00000502  00000-0  52610-4 0  9994","SEMIMAJOR_AXIS":"6925.359","PERIAPSIS":"546.378","EPOCH":"2022-09-11T07:44:23.249184","MEAN_MOTION_DDOT":"0.0000000000000","TIME_SYSTEM":"UTC","OBJECT_TYPE":"PAYLOAD","REV_AT_EPOCH":"10412","EPHEMERIS_TYPE":"0"}];
